0 SL-14 DEB
1 26013U 91068Y   13281.79798699  .00000054  00000-0  26843-3 0  9833
2 26013 082.7174 177.9214 0027999 314.4168 109.3403 12.55015447640708
0 SL-14 DEB
1 26013U 91068Y   13284.21081519  .00000081  00000-0  43468-3 0  9842
2 26013 082.7173 176.4311 0027852 308.9785 210.6593 12.55015309641018
0 SL-14 DEB
1 26013U 91068Y   13286.73885274  .00000100  00000-0  55276-3 0  9854
2 26013 082.7170 174.8699 0027747 303.1612 112.6226 12.55015495641329
0 SL-14 DEB
1 26013U 91068Y   13289.15542223  .00000086  00000-0  46458-3 0  9863
2 26013 082.7164 173.3774 0027650 297.6336 230.9275 12.55015997641632
0 SL-14 DEB
1 26013U 91068Y   13291.44366317  .00000065  00000-0  33914-3 0  9877
2 26013 082.7160 171.9641 0027535 292.3848 129.4493 12.55016525641910
0 SL-14 DEB
1 26013U 91068Y   13293.85064455  .00000041  00000-0  18730-3 0  9886
2 26013 082.7158 170.4773 0027430 286.8273 204.4932 12.55016791642223
